{
  "norad_id": 40699,
  "name": "COSMOS 2506",
  "history": [
    {
      "epoch": "2026-03-28T22:48:38.479968Z",
      "apogee_km": 717.347071357829,
      "perigee_km": 705.5640267494518,
      "latitude_deg": -6.041135359788019e-05,
      "longitude_deg": -36.747762344203856,
      "height_km": 710.7269275837103,
      "semi_major_axis_km": 7089.59254905364,
      "eccentricity": 0.00083101,
      "inclination_deg": 98.0575,
      "raan_deg": 131.7761,
      "arg_perigee_deg": 51.1322,
      "mean_anomaly_deg": 309.0615,
      "mean_motion_rev_day": 14.54356404
    },
    {
      "epoch": "2026-03-29T05:24:55.593216Z",
      "apogee_km": 717.3305445185679,
      "perigee_km": 705.5760038439757,
      "latitude_deg": -2.4863274132164487e-05,
      "longitude_deg": -135.82512004945727,
      "height_km": 710.6691096160945,
      "semi_major_axis_km": 7089.5902741812715,
      "eccentricity": 0.000829,
      "inclination_deg": 98.0575,
      "raan_deg": 132.0413,
      "arg_perigee_deg": 50.3176,
      "mean_anomaly_deg": 309.8751,
      "mean_motion_rev_day": 14.54357104
    },
    {
      "epoch": "2026-03-30T04:31:55.559136Z",
      "apogee_km": 717.2997890678544,
      "perigee_km": 705.601969067392,
      "latitude_deg": 2.7393673963087704e-05,
      "longitude_deg": -122.59655217255512,
      "height_km": 710.4795407309165,
      "semi_major_axis_km": 7089.587879067622,
      "eccentricity": 0.000825,
      "inclination_deg": 98.0573,
      "raan_deg": 132.9691,
      "arg_perigee_deg": 47.6439,
      "mean_anomaly_deg": 312.5456,
      "mean_motion_rev_day": 14.54357841
    },
    {
      "epoch": "2026-03-30T06:10:59.843712Z",
      "apogee_km": 717.3034222528249,
      "perigee_km": 705.5972374455241,
      "latitude_deg": 2.919974563013784e-06,
      "longitude_deg": -147.3660130174151,
      "height_km": 710.4609985767581,
      "semi_major_axis_km": 7089.587329849174,
      "eccentricity": 0.00082559,
      "inclination_deg": 98.0574,
      "raan_deg": 133.0353,
      "arg_perigee_deg": 47.4421,
      "mean_anomaly_deg": 312.7472,
      "mean_motion_rev_day": 14.5435801
    },
    {
      "epoch": "2026-03-30T14:26:21.219936Z",
      "apogee_km": 717.3012038813613,
      "perigee_km": 705.5921892397955,
      "latitude_deg": -6.057644031709702e-05,
      "longitude_deg": 88.78716940113267,
      "height_km": 710.3869187778001,
      "semi_major_axis_km": 7089.583696560579,
      "eccentricity": 0.00082579,
      "inclination_deg": 98.0571,
      "raan_deg": 133.3666,
      "arg_perigee_deg": 46.5089,
      "mean_anomaly_deg": 313.6793,
      "mean_motion_rev_day": 14.54359128
    },
    {
      "epoch": "2026-03-30T22:41:42.692064Z",
      "apogee_km": 717.2881881217008,
      "perigee_km": 705.6129135512319,
      "latitude_deg": 1.0458442073860492e-05,
      "longitude_deg": -35.060167816026755,
      "height_km": 710.3401265599638,
      "semi_major_axis_km": 7089.587550836466,
      "eccentricity": 0.00082341,
      "inclination_deg": 98.0572,
      "raan_deg": 133.6978,
      "arg_perigee_deg": 45.6578,
      "mean_anomaly_deg": 314.5293,
      "mean_motion_rev_day": 14.54357942
    },
    {
      "epoch": "2026-03-31T20:09:38.325024Z",
      "apogee_km": 717.2589098985782,
      "perigee_km": 705.6390784541227,
      "latitude_deg": 8.039410317485537e-06,
      "longitude_deg": 2.937974912101278,
      "height_km": 710.1900577718854,
      "semi_major_axis_km": 7089.58599417635,
      "eccentricity": 0.0008195,
      "inclination_deg": 98.0568,
      "raan_deg": 134.5593,
      "arg_perigee_deg": 43.2858,
      "mean_anomaly_deg": 316.8982,
      "mean_motion_rev_day": 14.54358421
    },
    {
      "epoch": "2026-04-01T20:55:42.500352Z",
      "apogee_km": 717.2043460306086,
      "perigee_km": 705.6922774014438,
      "latitude_deg": -7.765654617482326e-06,
      "longitude_deg": -8.60269725262426,
      "height_km": 710.0521295095106,
      "semi_major_axis_km": 7089.585311716026,
      "eccentricity": 0.0008119,
      "inclination_deg": 98.0563,
      "raan_deg": 135.5532,
      "arg_perigee_deg": 40.6478,
      "mean_anomaly_deg": 319.5324,
      "mean_motion_rev_day": 14.54358631
    },
    {
      "epoch": "2026-04-02T20:02:42.359136Z",
      "apogee_km": 717.1694475496279,
      "perigee_km": 705.7240235669433,
      "latitude_deg": -3.704942013472652e-06,
      "longitude_deg": 4.626125161925411,
      "height_km": 709.911625283938,
      "semi_major_axis_km": 7089.583735558285,
      "eccentricity": 0.0008072,
      "inclination_deg": 98.0559,
      "raan_deg": 136.4808,
      "arg_perigee_deg": 38.0437,
      "mean_anomaly_deg": 322.1329,
      "mean_motion_rev_day": 14.54359116
    },
    {
      "epoch": "2026-04-02T23:20:50.905824Z",
      "apogee_km": 717.1605699299298,
      "perigee_km": 705.7323032218392,
      "latitude_deg": 1.8937056735427183e-05,
      "longitude_deg": -44.91261281373408,
      "height_km": 709.8971441146188,
      "semi_major_axis_km": 7089.583436575885,
      "eccentricity": 0.00080599,
      "inclination_deg": 98.0559,
      "raan_deg": 136.6133,
      "arg_perigee_deg": 37.7002,
      "mean_anomaly_deg": 322.4759,
      "mean_motion_rev_day": 14.54359208
    },
    {
      "epoch": "2026-04-03T20:48:46.416960Z",
      "apogee_km": 717.1119369629978,
      "perigee_km": 705.7728636701322,
      "latitude_deg": -3.217547233345729e-06,
      "longitude_deg": -6.913959606010583,
      "height_km": 709.7856100912471,
      "semi_major_axis_km": 7089.579400316565,
      "eccentricity": 0.0007997,
      "inclination_deg": 98.0555,
      "raan_deg": 137.4748,
      "arg_perigee_deg": 35.2617,
      "mean_anomaly_deg": 324.9108,
      "mean_motion_rev_day": 14.5436045
    },
    {
      "epoch": "2026-04-04T06:43:12.007776Z",
      "apogee_km": 717.1065531228569,
      "perigee_km": 705.7714554241829,
      "latitude_deg": 1.6228654857324283e-05,
      "longitude_deg": -155.52976151052417,
      "height_km": 709.7157057993621,
      "semi_major_axis_km": 7089.576004273519,
      "eccentricity": 0.00079942,
      "inclination_deg": 98.0553,
      "raan_deg": 137.8725,
      "arg_perigee_deg": 34.0452,
      "mean_anomaly_deg": 326.1257,
      "mean_motion_rev_day": 14.54361495
    },
    {
      "epoch": "2026-04-05T14:05:33.053568Z",
      "apogee_km": 717.0823707568497,
      "perigee_km": 705.7864148652561,
      "latitude_deg": -2.697926030289186e-05,
      "longitude_deg": 93.85302872009251,
      "height_km": 709.5199928238643,
      "semi_major_axis_km": 7089.571392811053,
      "eccentricity": 0.00079666,
      "inclination_deg": 98.0548,
      "raan_deg": 139.1314,
      "arg_perigee_deg": 30.0626,
      "mean_anomaly_deg": 330.1027,
      "mean_motion_rev_day": 14.54362914
    }
  ]
}